[{"OBJECT_NAME":"STARLINK-6073","OBJECT_ID":"2023-078AS","EPOCH":"2026-03-09T22:17:41.084736","MEAN_MOTION":14.99848742,"ECCENTRICITY":0.00116938,"INCLINATION":70.0028,"RA_OF_ASC_NODE":323.68,"ARG_OF_PERICENTER":295.6335,"MEAN_ANOMALY":64.3616,"EPHEMERIS_TYPE":0,"CLASSIFICATION_TYPE":"U","NORAD_CAT_ID":56807,"ELEMENT_SET_NO":999,"REV_AT_EPOCH":15321,"BSTAR":0.083955931,"MEAN_MOTION_DOT":0.01119436,"MEAN_MOTION_DDOT":0},{"OBJECT_NAME":"FLOCK 4H-16","OBJECT_ID":"2025-276BF","EPOCH":"2026-03-09T18:22:00.923808","MEAN_MOTION":15.18505927,"ECCENTRICITY":0.00041583,"INCLINATION":97.4302,"RA_OF_ASC_NODE":144.0218,"ARG_OF_PERICENTER":10.1736,"MEAN_ANOMALY":349.9581,"EPHEMERIS_TYPE":0,"CLASSIFICATION_TYPE":"U","NORAD_CAT_ID":66719,"ELEMENT_SET_NO":999,"REV_AT_EPOCH":1532,"BSTAR":0.00041273119,"MEAN_MOTION_DOT":8.452e-5,"MEAN_MOTION_DDOT":0}]
